9227,-33.94938,151.21503,h,2/11/2018,1.443075479,15063,2035
9228,-33.94938,151.21503,h,2/11/2018,13.55719745,15064,2210
9229,-33.94938,151.21503,h,2/11/2018,13.56988859,15065,2210
9230,-33.94938,151.21503,h,2/11/2018,7.756698367,15066,2049
9231,-33.94938,151.21503,h,2/11/2018,14.73573884,15069,2196
9232,-33.94938,151.21503,h,2/11/2018,9.366434971,15072,2009
9233,-33.94938,151.21503,h,2/11/2018,6.479769524,15073,2022
9234,-33.94938,151.21503,h,2/11/2018,6.262151644,15074,2022
9235,-33.94938,151.21503,h,2/11/2018,4.782325573,15076,2031
9236,-33.94938,151.21503,h,2/11/2018,4.697733396,15077,2031
9237,-33.94938,151.21503,h,2/11/2018,4.971725511,15078,2031
9238,-33.94938,151.21503,h,2/11/2018,4.264241074,15079,2031
9239,-33.94938,151.21503,h,2/11/2018,6.466937826,15080,2016
9240,-33.94938,151.21503,h,2/11/2018,6.527567225,15081,2016
9241,-33.94938,151.21503,h,2/11/2018,6.288833276,15082,2016
9242,-33.94938,151.21503,h,2/11/2018,14.86113346,15084,2066
9243,-33.94938,151.21503,h,2/11/2018,14.28443809,15085,2210
9244,-33.94938,151.21503,h,2/11/2018,7.1237498,15086,2216
9245,-33.94938,151.21503,h,2/11/2018,3.39724041,15088,2018
9246,-33.94938,151.21503,h,2/11/2018,4.380121832,15089,2018
9247,-33.94938,151.21503,h,2/11/2018,3.811658233,15090,2018
9248,-33.94938,151.21503,h,2/11/2018,10.33972023,15095,2039
9249,-33.94938,151.21503,h,2/11/2018,10.38741547,15096,2039
9250,-33.94938,151.21503,h,2/11/2018,12.62511883,15097,2046
9251,-33.94938,151.21503,h,2/11/2018,8.528657832,15104,2219
9252,-33.94938,151.21503,h,2/11/2018,10.37895657,15108,2221
9253,-33.94938,151.21503,h,2/11/2018,10.88956041,15109,2221
9254,-33.94938,151.21503,h,2/11/2018,10.07973544,15110,2221
9255,-33.94938,151.21503,h,2/11/2018,14.5292739,15113,2065
9256,-33.94938,151.21503,h,2/11/2018,7.910538511,15114,2048
9257,-33.94938,151.21503,h,2/11/2018,7.169629534,15115,2048
9258,-33.94938,151.21503,h,2/11/2018,7.270696969,15116,2048
9259,-33.94938,151.21503,h,2/11/2018,7.768614093,15117,2048
9260,-33.94938,151.21503,h,2/11/2018,7.911663478,15118,2048
9261,-33.94938,151.21503,h,2/11/2018,14.68276859,15119,2135
9262,-33.94938,151.21503,h,2/11/2018,9.373899786,15120,2130
9263,-33.94938,151.21503,h,2/11/2018,9.539864116,15121,2130
9264,-33.94938,151.21503,h,2/11/2018,7.237316712,15123,2010
9265,-33.94938,151.21503,h,2/11/2018,6.877961794,15124,2010
9266,-33.94938,151.21503,h,2/11/2018,6.72391802,15125,2010
9267,-33.94938,151.21503,h,2/11/2018,13.50912535,15127,2224
9268,-33.94938,151.21503,h,2/11/2018,5.328805668,15147,2017
9269,-33.94938,151.21503,h,2/11/2018,12.86489818,15155,2065
9270,-33.94938,151.21503,h,2/11/2018,13.24393958,15156,2065
9271,-33.94938,151.21503,h,2/11/2018,13.20065173,15157,2065
9272,-33.94938,151.21503,h,2/11/2018,7.401604194,15158,2025
9273,-33.94938,151.21503,h,2/11/2018,7.418197467,15159,2025
9274,-33.94938,151.21503,h,2/11/2018,12.46015258,15160,2230
9275,-33.94938,151.21503,h,2/11/2018,13.13007682,15161,2230
9276,-33.94938,151.21503,h,2/11/2018,12.76434185,15162,2110
9277,-33.94938,151.21503,h,2/11/2018,14.65459415,15166,2228
9278,-33.94938,151.21503,h,2/11/2018,4.668791317,15167,2017
9279,-33.94938,151.21503,h,2/11/2018,10.56727175,15171,2131
9280,-33.94938,151.21503,h,2/11/2018,10.76580391,15180,2041
9281,-33.94938,151.21503,h,2/11/2018,8.803749321,15195,2207
9282,-33.94938,151.21503,h,2/11/2018,8.940904618,15196,2207
9283,-33.94938,151.21503,h,2/11/2018,9.226159144,15197,2207
9284,-33.94938,151.21503,h,2/11/2018,8.074573403,15198,2026
9285,-33.94938,151.21503,h,2/11/2018,6.642419172,15199,2022
9286,-33.94938,151.21503,h,2/11/2018,0.970038775,15200,2019
9287,-33.94938,151.21503,h,2/11/2018,7.244720289,15201,2024
9288,-33.94938,151.21503,h,2/11/2018,13.49458059,15203,2134
9289,-33.94938,151.21503,h,2/11/2018,13.04013108,15204,2134
9290,-33.94938,151.21503,h,2/11/2018,14.11767371,15205,2137
9291,-33.94938,151.21503,h,2/11/2018,14.33329994,15206,2062
9292,-33.94938,151.21503,h,2/11/2018,10.73293246,15207,2194
9293,-33.94938,151.21503,h,2/11/2018,13.07259957,15208,2046
9294,-33.94938,151.21503,h,2/11/2018,10.42416679,15209,2193
9295,-33.94938,151.21503,h,2/11/2018,13.93605825,15210,2229
9296,-33.94938,151.21503,h,2/11/2018,14.94012031,15211,2229
9297,-33.94938,151.21503,h,2/11/2018,14.16155738,15212,2229
9298,-33.94938,151.21503,h,2/11/2018,8.642142018,15213,2218
9299,-33.94938,151.21503,h,2/11/2018,3.212091195,15224,2036
9300,-33.94938,151.21503,h,2/11/2018,10.29693038,15226,2206
9301,-33.94938,151.21503,h,2/11/2018,14.71413897,15227,2137
9302,-33.94938,151.21503,h,2/11/2018,14.1256895,15229,2137
9303,-33.94938,151.21503,h,2/11/2018,5.019692899,15231,2034
9304,-33.94938,151.21503,h,2/11/2018,4.834159763,15232,2034
9305,-33.94938,151.21503,h,2/11/2018,4.732471897,15233,2034
9306,-33.94938,151.21503,h,2/11/2018,5.282106735,15234,2034
9307,-33.94938,151.21503,h,2/11/2018,5.160739141,15235,2034
9308,-33.94938,151.21503,h,2/11/2018,4.629832018,15236,2034
9309,-33.94938,151.21503,h,2/11/2018,4.222423305,15237,2034
9310,-33.94938,151.21503,h,2/11/2018,13.57179774,15238,2090
9311,-33.94938,151.21503,h,2/11/2018,13.79962937,15239,2090
9312,-33.94938,151.21503,h,2/11/2018,13.67104337,15240,2090
9313,-33.94938,151.21503,h,2/11/2018,12.45361076,15241,2090
9314,-33.94938,151.21503,h,2/11/2018,14.14861854,15242,2065
9315,-33.94938,151.21503,h,2/11/2018,11.49402917,15243,2132
9316,-33.94938,151.21503,h,2/11/2018,7.636314909,15244,2010
9317,-33.94938,151.21503,h,2/11/2018,7.927746405,15245,2010
9318,-33.94938,151.21503,h,2/11/2018,7.791893456,15246,2010
9319,-33.94938,151.21503,h,2/11/2018,8.374001528,15247,2028
9320,-33.94938,151.21503,h,2/11/2018,8.759528217,15248,2028
9321,-33.94938,151.21503,h,2/11/2018,13.00360652,15249,2047
9322,-33.94938,151.21503,h,2/11/2018,8.781505857,15250,2203
9323,-33.94938,151.21503,h,2/11/2018,8.583815955,15251,2203
9324,-33.94938,151.21503,h,2/11/2018,9.422476342,15253,2206
9325,-33.94938,151.21503,h,2/11/2018,9.400593221,15254,2206
9326,-33.94938,151.21503,h,2/11/2018,7.106201609,15255,2206
9327,-33.94938,151.21503,h,2/11/2018,2.023705375,15256,2018
9328,-33.94938,151.21503,h,2/11/2018,6.40952837,15261,2042
9329,-33.94938,151.21503,h,2/11/2018,5.562108286,15265,2043
9330,-33.94938,151.21503,h,2/11/2018,12.22763662,15269,2046
9331,-33.94938,151.21503,h,2/11/2018,7.82259024,15270,2037
9332,-33.94938,151.21503,h,2/11/2018,8.100621901,15271,2037
9333,-33.94938,151.21503,h,2/11/2018,7.669827987,15277,2037
9334,-33.94938,151.21503,h,2/11/2018,8.532495585,15278,2037
9335,-33.94938,151.21503,h,2/11/2018,14.58327714,15282,2065
9336,-33.94938,151.21503,h,2/11/2018,12.65519477,15283,2065
9337,-33.94938,151.21503,h,2/11/2018,13.10959444,15284,2065
9338,-33.94938,151.21503,h,2/11/2018,9.838242571,15288,2045
9339,-33.94938,151.21503,h,2/11/2018,14.10180623,15293,2110
9340,-33.94938,151.21503,h,2/11/2018,9.90130677,15295,2220
9341,-33.94938,151.21503,h,2/11/2018,4.093332245,15296,2033
9342,-33.94938,151.21503,h,2/11/2018,3.439302348,15298,2032
9343,-33.94938,151.21503,h,2/11/2018,10.00216714,15299,2208
9344,-33.94938,151.21503,h,2/11/2018,9.695019719,15307,2040
9345,-33.94938,151.21503,h,2/11/2018,9.756375404,15308,2040
9346,-33.94938,151.21503,h,2/11/2018,8.796979338,15309,2049
9347,-33.94938,151.21503,h,2/11/2018,9.90886959,15311,2040
9348,-33.94938,151.21503,h,2/11/2018,4.053436564,15315,2035
9349,-33.94938,151.21503,h,2/11/2018,2.974193412,15316,2035
9350,-33.94938,151.21503,h,2/11/2018,6.610347352,15317,2204
9351,-33.94938,151.21503,h,2/11/2018,2.97018911,15319,2020
9352,-33.94938,151.21503,h,2/11/2018,2.745909525,15320,2020
9353,-33.94938,151.21503,h,2/11/2018,1.930190608,15321,2036
9354,-33.94938,151.21503,h,2/11/2018,14.13193922,15324,2228
9355,-33.94938,151.21503,h,2/11/2018,7.411157012,15325,2217
9356,-33.94938,151.21503,h,2/11/2018,6.621697016,15326,2217
9357,-33.94938,151.21503,h,2/11/2018,12.19479098,15328,2223
9358,-33.94938,151.21503,h,2/11/2018,14.74189729,15331,2065
9359,-33.94938,151.21503,h,2/11/2018,14.65029422,15332,2065
9360,-33.94938,151.21503,h,2/11/2018,14.74941397,15333,2065
9361,-33.94938,151.21503,h,2/11/2018,12.92040993,15337,2089
9362,-33.94938,151.21503,h,2/11/2018,12.93051475,15338,2089
9363,-33.94938,151.21503,h,2/11/2018,12.46335131,15339,2089
9364,-33.94938,151.21503,h,2/11/2018,13.18487299,15340,2089
9365,-33.94938,151.21503,h,2/11/2018,12.41723406,15341,2089
9366,-33.94938,151.21503,h,2/11/2018,12.44542902,15342,2089
9367,-33.94938,151.21503,h,2/11/2018,7.143376096,15343,2042
9368,-33.94938,151.21503,h,2/11/2018,5.965868715,15344,2042
9369,-33.94938,151.21503,h,2/11/2018,9.29547994,15346,2026
9370,-33.94938,151.21503,h,2/11/2018,13.02901224,15350,2060
9371,-33.94938,151.21503,h,2/11/2018,13.07805391,15352,2223
9372,-33.94938,151.21503,h,2/11/2018,13.96577463,15353,2223
9373,-33.94938,151.21503,h,2/11/2018,14.47368854,15354,2223
9374,-33.94938,151.21503,h,2/11/2018,7.471453547,15355,2021
9375,-33.94938,151.21503,h,2/11/2018,14.39364666,15361,2196
9376,-33.94938,151.21503,h,2/11/2018,8.956662911,15363,2009
9377,-33.94938,151.21503,h,2/11/2018,9.486319114,15364,2009
9378,-33.94938,151.21503,h,2/11/2018,9.177636387,15365,2009
9379,-33.94938,151.21503,h,2/11/2018,6.336001873,15366,2022
9380,-33.94938,151.21503,h,2/11/2018,8.25167226,15368,2217
9381,-33.94938,151.21503,h,2/11/2018,4.813304752,15369,2031
9382,-33.94938,151.21503,h,2/11/2018,5.023849762,15370,2031
9383,-33.94938,151.21503,h,2/11/2018,6.051270539,15371,2016
9384,-33.94938,151.21503,h,2/11/2018,3.236315819,15374,2018
9385,-33.94938,151.21503,h,2/11/2018,3.713073554,15375,2018
9386,-33.94938,151.21503,h,2/11/2018,13.91773266,15377,2196
9387,-33.94938,151.21503,h,2/11/2018,9.79454838,15381,2039
9388,-33.94938,151.21503,h,2/11/2018,10.09291641,15382,2039
9389,-33.94938,151.21503,h,2/11/2018,10.29082188,15383,2039
9390,-33.94938,151.21503,h,2/11/2018,8.57701684,15388,2219
9391,-33.94938,151.21503,h,2/11/2018,8.665960942,15389,2219
9392,-33.94938,151.21503,h,2/11/2018,4.4254019,15397,2034
